TIANLIAN 2-02           
1 50005U 21124A   25292.16572525 -.00000016  00000+0  00000+0 0  9999
2 50005   0.1755  92.9782 0004720 149.5576  16.0121  1.00272085 14200
TURKSAT 5B              
1 50212U 21126A   25292.20431027  .00000143  00000+0  00000+0 0  9997
2 50212   0.0770 336.4689 0002915 316.3599 210.6876  1.00271981 13887
INMARSAT 6-F1           
1 50319U 21128A   25291.99847602  .00000000  00000+0  00000+0 0  9994
2 50319   0.0208 223.9741 0000412 135.2420 111.7175  1.00268806 13842
SHIYAN-12 01 (SY-12 01) 
1 50321U 21129A   25292.75791556 -.00000349  00000+0  00000+0 0  9996
2 50321   3.0512  83.2572 0002760 180.8412 158.8902  1.00447436 14085
SHIYAN-12 02 (SY-12 02) 
1 50322U 21129B   25292.69153875 -.00000354  00000+0  00000+0 0  9992
2 50322   3.0505  83.2536 0002713 169.7669 142.3193  1.00104927 14081
TJS-9                   
1 50574U 21135A   25292.29628176 -.00000302  00000+0  00000+0 0  9998
2 50574   0.0630  69.8093 0002417 210.1250 351.9368  1.00267325 14019
USA 324                 
1 51280U 22006A   25290.76794986  .00000025  00000+0  00000+0 0  9995
2 51280   0.1836  79.7215 0000569 134.3807  84.5413  1.00675710 13706
USA 325                 
1 51281U 22006B   25290.78658330 -.00000274  00000+0  00000+0 0  9997
2 51281   0.3165  87.9522 0008183  89.4513 221.6724  1.00493102 13690
GOES 18                 
1 51850U 22021A   25292.24010375  .00000094  00000+0  00000+0 0  9999
2 51850   0.0584  54.5929 0000685 216.2700  66.5572  1.00272828  4172
ZHONGXING-6D            
1 52255U 22038A   25289.58218235 -.00000366  00000+0  00000+0 0  9998
2 52255   0.0232 230.2280 0002710  14.6534 115.1067  1.00267732 12976
NILESAT 301             
1 52817U 22061A   25292.26593054 -.00000060  00000+0  00000+0 0  9993
2 52817   0.0531  27.1916 0002120 203.8864 245.6680  1.00272552 12329
CMS-02 (GSAT 24)        
1 52903U 22067A   25292.14104331 -.00000168  00000+0  00000+0 0  9997
2 52903   0.0264 250.8788 0003286   3.0900 267.6978  1.00272084 12194
MEASAT 3D               
1 52904U 22067B   25292.07136301 -.00000245  00000+0  00000+0 0  9998
2 52904   0.0398 333.3036 0002549 282.7484 248.9586  1.00273526 12234
SES-22                  
1 52933U 22071A   25292.34068495  .00000000  00000+0  00000+0 0  9991
2 52933   0.0121 217.2301 0000936 353.2071 161.2524  1.00269832  5101
WFOV (USA 332)          
1 52940U 22073A   25292.29097733 -.00000361  00000+0  00000+0 0  9993
2 52940   3.0887  81.6258 0001595  78.2238  92.1962  1.00269379 11950
TIANLIAN 2-03           
1 53100U 22078A   25291.89377116  .00000068  00000+0  00000+0 0  9991
2 53100   0.1034  20.7015 0002898 222.9508 116.3400  1.00272620 12131
SBIRS GEO-6 (USA 336)   
1 53355U 22092A   25292.29487735 -.00000301  00000+0  00000+0 0  9994
2 53355   3.6879 314.1349 0001884 260.5894  58.4611  1.00272068 11818
EUTELSAT KONNECT VHTS   
1 53765U 22110A   25292.26783722  .00000015  00000+0  00000+0 0  9993
2 53765   0.0577  94.7280 0002586  96.4476 295.9553  1.00270608  4415
ZHONGXING-1E            
1 53813U 22112A   25292.14069664 -.00000153  00000+0  00000+0 0  9992
2 53813   0.0375 304.3120 0004511 311.3333 264.3013  1.00273173 11430
SES-20                  
1 53960U 22123A   25292.24686378 -.00000104  00000+0  00000+0 0  9991
2 53960   0.0427  64.6868 0001370  45.5877 263.4972  1.00271626 11115
SES-21                  
1 53961U 22123B   25292.34232883  .00000067  00000+0  00000+0 0  9998
2 53961   0.0288  70.5157 0001052 135.2195 174.6017  1.00270953  4796
GALAXY 33 (G-33)        
1 54026U 22128A   25292.33183278  .00000000  00000+0  00000+0 0  9995
2 54026   0.0200 237.8745 0001613 322.6793 173.9559  1.00270933 11321
GALAXY 34 (G-34)        
1 54027U 22128B   25292.33643720  .00000057  00000+0  00000+0 0  9991
2 54027   0.0099 244.7156 0001489 323.0902 172.3942  1.00271752 11496
ANGOSAT 2               
1 54033U 22131A   25292.27182391  .00000133  00000+0  00000+0 0  9992
2 54033   0.0147 227.6410 0001407  47.5306 233.7029  1.00274462 11057
EUTELSAT HOTBIRD 13F    
1 54048U 22134A   25292.26983057  .00000085  00000+0  00000+0 0  9994
2 54048   0.0559 282.0745 0002145  78.1031 137.9552  1.00272028 10962
LDPE-2                  
1 54219U 22144A   25292.21982367 -.00000110  00000+0  00000+0 0  9993
2 54219   5.0604  65.3911 0001503 118.0725  43.7516  1.02360314  9405
EUTELSAT HOTBIRD 13G    
1 54225U 22146A   25292.26983057  .00000085  00000+0  00000+0 0  9994
2 54225   0.0477 235.6461 0001918 303.6955 318.7956  1.00271539  5052
ZHONGXING-19            
1 54230U 22148A   25292.27961597 -.00000081  00000+0  00000+0 0  9995
2 54230   0.0334  96.5128 0007548 135.6698  59.9002  1.00272949 10964
GALAXY 31 (G-31)        
1 54243U 22153A   25292.21268009  .00000010  00000+0  00000+0 0  9998
2 54243   0.0100 221.8314 0001593   2.9535 118.7379  1.00272201  4717
GALAXY 32 (G-32)        
1 54244U 22153B   25292.21110919 -.00000177  00000+0  00000+0 0  9990
2 54244   0.0139 280.2029 0000926   8.5228  84.2286  1.00273830 10723
EUTELSAT 10B            
1 54259U 22157A   25292.26931057  .00000066  00000+0  00000+0 0  9995
2 54259   0.0601  92.0116 0001615  44.5535 358.3658  1.00271479 10619
GALAXY 35 (G-35)        
1 54741U 22170A   25292.20951593 -.00000165  00000+0  00000+0 0  9998
2 54741   0.0098 225.0106 0002008 345.5317 159.7299  1.00272512 10478
GALAXY 36 (G-36)        
1 54742U 22170B   25292.21268084 -.00000188  00000+0  00000+0 0  9991
2 54742   0.0221 139.9014 0001202  20.5875 215.0286  1.00271896 10355
METEOSAT-12 (MTG-I1)    
1 54743U 22170C   25292.26714389 -.00000009  00000+0  00000+0 0  9993
2 54743   0.7021  30.5775 0001345 141.0779 312.1681  1.00274640 10562
SHIJIAN-23 (SJ-23)      
1 55131U 23002A   25292.69947409  .00000143  00000+0  00000+0 0  9996
2 55131   3.0969  81.3672 0000423 293.0697 286.2815  1.00453505 10091
APSTAR-6E               
1 55239U 23005A   25286.94219898 -.00000331  00000+0  00000+0 0  9993
2 55239   0.0198 228.2015 0004321 359.4213 268.3345  1.00268551 16232
USA 342                 
1 55263U 23008A   25288.70422093  .00000124  00000+0  00000+0 0  9991
2 55263   0.0113 237.6198 0000709  12.1191  52.0743  1.00271446 10068
LDPE-3A                 
1 55264U 23008B   25292.20127692  .00000153  00000+0  00000+0 0  9991
2 55264   1.6564  84.1601 0000542 140.5990 262.4357  1.00560654  9404
ELEKTRO-L 4             
1 55506U 23016A   25291.46386844 -.00000064  00000+0  00000+0 0  9994
2 55506   0.0948  50.1534 0002695 184.1725 125.6698  1.00272486  9918
AMAZONAS NEXUS          
1 55508U 23017A   25292.25518382  .00000000  00000+0  00000+0 0  9998
2 55508   0.0149  33.8410 0001123 141.0685 243.9325  1.00269122  4623
ZHONGXING-26            
1 55686U 23023A   25286.94046564 -.00000367  00000+0  00000+0 0  9996
2 55686   0.0609  65.1919 0000845  97.3665 323.8426  1.00267862  9763
LUCH-5X (OLYMP-K 2)     
1 55841U 23031A   25292.70770744  .00000033  00000+0  00000+0 0  9992
2 55841   0.0304  89.9355 0001541 314.2665 301.0207  1.00267373  9527
GAOFEN-13 02            
1 55912U 23036A   25292.29628176 -.00000222  00000+0  00000+0 0  9992
2 55912   1.1451 332.2512 0002958 332.6110 338.0533  1.00274929  9675
SES-18                  
1 55970U 23038A   25292.24686378 -.00000104  00000+0  00000+0 0  9990
2 55970   0.0169 260.3748 0002670 339.9506 133.4457  1.00272388  9685
SES-19                  
1 55971U 23038B   25292.33881300  .00000086  00000+0  00000+0 0  9991
2 55971   0.0309 281.3712 0001518 290.7604 163.0252  1.00270131  9652
INTELSAT 40E (IS-40E)   
1 56174U 23052A   25292.21110919 -.00000177  00000+0  00000+0 0  9993
2 56174   0.0100 235.4759 0002360 317.3742 180.0951  1.00274060  9406
VIASAT-3                
1 56370U 23060A   25292.21425733 -.00000188  00000+0  00000+0 0  9995
2 56370   0.0229 269.2782 0000415 184.4471 282.4494  1.00272367  9012
ARCTURUS                
1 56371U 23060B   25292.26289720 -.00000169  00000+0  00000+0 0  9994
2 56371   2.1509  82.9511 0000383 193.6585 183.9451  1.00272192  9046
GS-1                    
1 56372U 23060C   25291.92393907 -.00000023  00000+0  00000+0 0  9999
2 56372   2.1000  82.6528 0002962 248.0733  97.0388  1.00300728  5118
BEIDOU-3 G4             
1 56564U 23066A   25292.22762370 -.00000116  00000+0  00000+0 0  9999
2 56564   0.9393 298.0530 0004792 220.5220 111.2754  1.00273650  8973
ARABSAT-7B (BADR-8)     
1 56757U 23075A   25292.27217058  .00000142  00000+0  00000+0 0  9994
2 56757   0.0770  30.4145 0001772 310.4555 171.1195  1.00271633  8706
NVS-01 (IRNSS-1J)       
1 56759U 23076A   25292.29297067 -.00000341  00000+0  00000+0 0  9999
2 56759   2.7566 253.4448 0007005 348.0808  21.5542  1.00277618  8709
NUSANTARA TIGA (SATRIA) 
1 57045U 23086A   25291.93945249 -.00000239  00000+0  00000+0 0  9997
2 57045   0.0482 346.2433 0003630 299.6060 226.0364  1.00270034  7340
H2SAT (HEINRICH HERTZ)  
1 57213U 23093A   25292.27078390  .00000036  00000+0  00000+0 0  9998
2 57213   0.0525 239.2884 0001488  49.8455 214.0675  0.99790141  8502
SYRACUSE 4B             
1 57214U 23093B   25292.26601721  .00000000  00000+0  00000+0 0  9999
2 57214   0.0182 217.1519 0000172  70.0237 190.0483  1.00271511  4554
JUPITER 3 (ECHOSTAR 24) 
1 57479U 23108A   25291.18958452 -.00000157  00000+0  00000+0 0  9999
2 57479   0.0147 240.5623 0001228 327.1063 152.3448  1.00272045  8223
GALAXY 37 (G-37)        
1 57493U 23112A   25292.24209709  .00000045  00000+0  00000+0 0  9997
2 57493   0.0093 175.6134 0002129  43.0408 129.4835  1.00272103  8121
LUDI TANCE-4 01A        
1 57624U 23120A   25291.84836618 -.00000199  00000+0  00000+0 0  9993
2 57624  15.2772 199.9441 0005088  61.9549 160.8529  1.00272134  8124
TJS-10                  
1 58204U 23169A   25292.70016105  .00000004  00000+0  00000+0 0  9992
2 58204   1.9205  83.3709 0004830 147.6100 222.5389  1.00274291  7130
